{"fetched_at":"2026-03-29T16:36:15Z","count":15609,"tles":[{"name":"KUIPER-00276","line1":"1 67794U 26030AG  26087.82996385  .00009750  00000+0  34730-3 0  9997","line2":"2 67794  51.8845 128.3264 0017934 126.6992 233.5643 15.29439524  8010","category":"Other"}]}